[{"OBJECT_NAME":"FENGYUN 1C DEB","OBJECT_ID":"1999-025AAM","EPOCH":"2026-04-04T15:42:09.245088","MEAN_MOTION":13.85527888,"ECCENTRICITY":0.0142738,"INCLINATION":98.6414,"RA_OF_ASC_NODE":338.3273,"ARG_OF_PERICENTER":82.5044,"MEAN_ANOMALY":279.2304,"EPHEMERIS_TYPE":0,"CLASSIFICATION_TYPE":"U","NORAD_CAT_ID":30326,"ELEMENT_SET_NO":999,"REV_AT_EPOCH":97019,"BSTAR":0.00023469,"MEAN_MOTION_DOT":2.52e-6,"MEAN_MOTION_DDOT":0},{"OBJECT_NAME":"FENGYUN 1C DEB","OBJECT_ID":"1999-025AAN","EPOCH":"2026-03-31T11:13:30.715104","MEAN_MOTION":14.18975519,"ECCENTRICITY":0.01148884,"INCLINATION":98.4398,"RA_OF_ASC_NODE":344.5803,"ARG_OF_PERICENTER":188.0436,"MEAN_ANOMALY":351.7847,"EPHEMERIS_TYPE":0,"CLASSIFICATION_TYPE":"U","NORAD_CAT_ID":30327,"ELEMENT_SET_NO":999,"REV_AT_EPOCH":97984,"BSTAR":0.0018030747,"MEAN_MOTION_DOT":3.977e-5,"MEAN_MOTION_DDOT":0},{"OBJECT_NAME":"FENGYUN 1C DEB","OBJECT_ID":"1999-025AAP","EPOCH":"2026-04-04T13:41:01.256352","MEAN_MOTION":14.12540208,"ECCENTRICITY":0.0005069,"INCLINATION":98.6847,"RA_OF_ASC_NODE":106.2506,"ARG_OF_PERICENTER":188.7892,"MEAN_ANOMALY":295.4658,"EPHEMERIS_TYPE":0,"CLASSIFICATION_TYPE":"U","NORAD_CAT_ID":30328,"ELEMENT_SET_NO":999,"REV_AT_EPOCH":98857,"BSTAR":0.00017945,"MEAN_MOTION_DOT":2.89e-6,"MEAN_MOTION_DDOT":0},{"OBJECT_NAME":"FENGYUN 1C DEB","OBJECT_ID":"1999-025AAQ","EPOCH":"2026-04-04T06:32:28.223232","MEAN_MOTION":13.86864672,"ECCENTRICITY":0.01422485,"INCLINATION":99.2652,"RA_OF_ASC_NODE":17.591,"ARG_OF_PERICENTER":93.4924,"MEAN_ANOMALY":58.7728,"EPHEMERIS_TYPE":0,"CLASSIFICATION_TYPE":"U","NORAD_CAT_ID":30329,"ELEMENT_SET_NO":999,"REV_AT_EPOCH":96970,"BSTAR":0.00052867327,"MEAN_MOTION_DOT":6.25e-6,"MEAN_MOTION_DDOT":0},{"OBJECT_NAME":"FENGYUN 1C DEB","OBJECT_ID":"1999-025AAR","EPOCH":"2026-04-03T23:07:22.302912","MEAN_MOTION":13.82517648,"ECCENTRICITY":0.01855846,"INCLINATION":98.897,"RA_OF_ASC_NODE":85.0427,"ARG_OF_PERICENTER":242.5893,"MEAN_ANOMALY":173.7209,"EPHEMERIS_TYPE":0,"CLASSIFICATION_TYPE":"U","NORAD_CAT_ID":30330,"ELEMENT_SET_NO":999,"REV_AT_EPOCH":96208,"BSTAR":0.0016750403,"MEAN_MOTION_DOT":2.029e-5,"MEAN_MOTION_DDOT":0},{"OBJECT_NAME":"FENGYUN 1C DEB","OBJECT_ID":"1999-025AAS","EPOCH":"2026-04-04T02:07:09.734304","MEAN_MOTION":13.97992681,"ECCENTRICITY":0.00972322,"INCLINATION":98.9393,"RA_OF_ASC_NODE":130.859,"ARG_OF_PERICENTER":58.3869,"MEAN_ANOMALY":322.8672,"EPHEMERIS_TYPE":0,"CLASSIFICATION_TYPE":"U","NORAD_CAT_ID":30331,"ELEMENT_SET_NO":999,"REV_AT_EPOCH":97689,"BSTAR":0.00057114252,"MEAN_MOTION_DOT":8.01e-6,"MEAN_MOTION_DDOT":0},{"OBJECT_NAME":"FENGYUN 1C DEB","OBJECT_ID":"1999-025AAT","EPOCH":"2026-04-03T22:09:41.753088","MEAN_MOTION":13.76848221,"ECCENTRICITY":0.01772728,"INCLINATION":99.7321,"RA_OF_ASC_NODE":72.9222,"ARG_OF_PERICENTER":171.3656,"MEAN_ANOMALY":246.5435,"EPHEMERIS_TYPE":0,"CLASSIFICATION_TYPE":"U","NORAD_CAT_ID":30332,"ELEMENT_SET_NO":999,"REV_AT_EPOCH":96259,"BSTAR":0.00048619475,"MEAN_MOTION_DOT":4.91e-6,"MEAN_MOTION_DDOT":0},{"OBJECT_NAME":"FENGYUN 1C DEB","OBJECT_ID":"1999-025AAV","EPOCH":"2026-04-04T05:33:53.255232","MEAN_MOTION":13.92951824,"ECCENTRICITY":0.01428361,"INCLINATION":99.0167,"RA_OF_ASC_NODE":195.9146,"ARG_OF_PERICENTER":36.6284,"MEAN_ANOMALY":355.8476,"EPHEMERIS_TYPE":0,"CLASSIFICATION_TYPE":"U","NORAD_CAT_ID":30334,"ELEMENT_SET_NO":999,"REV_AT_EPOCH":96787,"BSTAR":0.002075709,"MEAN_MOTION_DOT":2.889e-5,"MEAN_MOTION_DDOT":0},{"OBJECT_NAME":"FENGYUN 1C DEB","OBJECT_ID":"1999-025AAW","EPOCH":"2026-04-03T22:13:10.088544","MEAN_MOTION":14.014161,"ECCENTRICITY":0.01334704,"INCLINATION":98.9108,"RA_OF_ASC_NODE":87.5371,"ARG_OF_PERICENTER":179.3043,"MEAN_ANOMALY":244.3142,"EPHEMERIS_TYPE":0,"CLASSIFICATION_TYPE":"U","NORAD_CAT_ID":30335,"ELEMENT_SET_NO":999,"REV_AT_EPOCH":98162,"BSTAR":0.00044008485,"MEAN_MOTION_DOT":6.75e-6,"MEAN_MOTION_DDOT":0},{"OBJECT_NAME":"FENGYUN 1C DEB","OBJECT_ID":"1999-025AAX","EPOCH":"2026-04-04T00:08:03.471072","MEAN_MOTION":14.19492029,"ECCENTRICITY":0.00441775,"INCLINATION":98.5914,"RA_OF_ASC_NODE":116.656,"ARG_OF_PERICENTER":44.4996,"MEAN_ANOMALY":336.4115,"EPHEMERIS_TYPE":0,"CLASSIFICATION_TYPE":"U","NORAD_CAT_ID":30336,"ELEMENT_SET_NO":999,"REV_AT_EPOCH":99195,"BSTAR":0.00051089326,"MEAN_MOTION_DOT":1.044e-5,"MEAN_MOTION_DDOT":0},{"OBJECT_NAME":"FENGYUN 1C DEB","OBJECT_ID":"1999-025AAZ","EPOCH":"2026-04-04T04:38:13.943616","MEAN_MOTION":14.48863504,"ECCENTRICITY":0.02671444,"INCLINATION":98.4411,"RA_OF_ASC_NODE":169.0777,"ARG_OF_PERICENTER":211.5352,"MEAN_ANOMALY":204.9439,"EPHEMERIS_TYPE":0,"CLASSIFICATION_TYPE":"U","NORAD_CAT_ID":30338,"ELEMENT_SET_NO":999,"REV_AT_EPOCH":99772,"BSTAR":0.0017189172,"MEAN_MOTION_DOT":0.00010211,"MEAN_MOTION_DDOT":0},{"OBJECT_NAME":"FENGYUN 1C DEB","OBJECT_ID":"1999-025ABA","EPOCH":"2026-04-04T07:09:49.167072","MEAN_MOTION":14.40217778,"ECCENTRICITY":0.00239873,"INCLINATION":98.9715,"RA_OF_ASC_NODE":210.8981,"ARG_OF_PERICENTER":114.4582,"MEAN_ANOMALY":300.4824,"EPHEMERIS_TYPE":0,"CLASSIFICATION_TYPE":"U","NORAD_CAT_ID":30339,"ELEMENT_SET_NO":999,"REV_AT_EPOCH":99046,"BSTAR":0.004530569,"MEAN_MOTION_DOT":0.00014363,"MEAN_MOTION_DDOT":0},{"OBJECT_NAME":"FENGYUN 1C DEB","OBJECT_ID":"1999-025ABB","EPOCH":"2026-04-04T04:10:47.756640","MEAN_MOTION":14.04655962,"ECCENTRICITY":0.0145583,"INCLINATION":98.9796,"RA_OF_ASC_NODE":154.8673,"ARG_OF_PERICENTER":181.4211,"MEAN_ANOMALY":243.745,"EPHEMERIS_TYPE":0,"CLASSIFICATION_TYPE":"U","NORAD_CAT_ID":30340,"ELEMENT_SET_NO":999,"REV_AT_EPOCH":98359,"BSTAR":0.00039529313,"MEAN_MOTION_DOT":6.51e-6,"MEAN_MOTION_DDOT":0},{"OBJECT_NAME":"FENGYUN 1C DEB","OBJECT_ID":"1999-025ABC","EPOCH":"2026-04-04T04:49:16.343040","MEAN_MOTION":14.35994572,"ECCENTRICITY":0.00505945,"INCLINATION":99.2169,"RA_OF_ASC_NODE":354.8286,"ARG_OF_PERICENTER":91.9807,"MEAN_ANOMALY":60.7971,"EPHEMERIS_TYPE":0,"CLASSIFICATION_TYPE":"U","NORAD_CAT_ID":30341,"ELEMENT_SET_NO":999,"REV_AT_EPOCH":98694,"BSTAR":0.0036956737,"MEAN_MOTION_DOT":0.00010862,"MEAN_MOTION_DDOT":0},{"OBJECT_NAME":"FENGYUN 1C DEB","OBJECT_ID":"1999-025ABD","EPOCH":"2026-04-04T11:50:43.558944","MEAN_MOTION":13.8020992,"ECCENTRICITY":0.01678686,"INCLINATION":100.2005,"RA_OF_ASC_NODE":287.7416,"ARG_OF_PERICENTER":192.6741,"MEAN_ANOMALY":223.6303,"EPHEMERIS_TYPE":0,"CLASSIFICATION_TYPE":"U","NORAD_CAT_ID":30342,"ELEMENT_SET_NO":999,"REV_AT_EPOCH":96444,"BSTAR":0.00086320012,"MEAN_MOTION_DOT":9.49e-6,"MEAN_MOTION_DDOT":0},{"OBJECT_NAME":"FENGYUN 1C DEB","OBJECT_ID":"1999-025ABF","EPOCH":"2026-04-04T04:45:00.445248","MEAN_MOTION":14.54315796,"ECCENTRICITY":0.00099412,"INCLINATION":98.8119,"RA_OF_ASC_NODE":186.9944,"ARG_OF_PERICENTER":140.0764,"MEAN_ANOMALY":276.705,"EPHEMERIS_TYPE":0,"CLASSIFICATION_TYPE":"U","NORAD_CAT_ID":30344,"ELEMENT_SET_NO":999,"REV_AT_EPOCH":99710,"BSTAR":0.004631736,"MEAN_MOTION_DOT":0.00019675,"MEAN_MOTION_DDOT":0}]
