FENGYUN 1C DEB          
1 30326U 99025AAM 26094.65427367  .00000252  00000+0  23469-3 0  9995
2 30326  98.6414 338.3273 0142738  82.5044 279.2304 13.85527888970193
FENGYUN 1C DEB          
1 30327U 99025AAN 26090.46771661  .00003977  00000+0  18031-2 0  9995
2 30327  98.4398 344.5803 0114888 188.0436 351.7847 14.18975519979847
FENGYUN 1C DEB          
1 30328U 99025AAP 26094.57015343  .00000289  00000+0  17945-3 0  9997
2 30328  98.6847 106.2506 0005069 188.7892 295.4658 14.12540208988576
FENGYUN 1C DEB          
1 30329U 99025AAQ 26094.27254888  .00000625  00000+0  52867-3 0  9990
2 30329  99.2652  17.5910 0142248  93.4924  58.7728 13.86864672969706
FENGYUN 1C DEB          
1 30330U 99025AAR 26093.96345258  .00002029  00000+0  16750-2 0  9999
2 30330  98.8970  85.0427 0185584 242.5893 173.7209 13.82517648962081
FENGYUN 1C DEB          
1 30331U 99025AAS 26094.08830711  .00000801  00000+0  57114-3 0  9993
2 30331  98.9393 130.8590 0097232  58.3869 322.8672 13.97992681976895
FENGYUN 1C DEB          
1 30332U 99025AAT 26093.92339992  .00000491  00000+0  48619-3 0  9996
2 30332  99.7321  72.9222 0177272 171.3656 246.5435 13.76848221962595
FENGYUN 1C DEB          
1 30334U 99025AAV 26094.23186638  .00002889  00000+0  20757-2 0  9995
2 30334  99.0167 195.9146 0142836  36.6284 355.8476 13.92951824967874
FENGYUN 1C DEB          
1 30335U 99025AAW 26093.92581121  .00000675  00000+0  44008-3 0  9994
2 30335  98.9108  87.5371 0133470 179.3043 244.3142 14.01416100981621
FENGYUN 1C DEB          
1 30336U 99025AAX 26094.00559573  .00001044  00000+0  51089-3 0  9999
2 30336  98.5914 116.6560 0044177  44.4996 336.4115 14.19492029991954
FENGYUN 1C DEB          
1 30338U 99025AAZ 26094.19321694  .00010211  00000+0  17189-2 0  9990
2 30338  98.4411 169.0777 0267144 211.5352 204.9439 14.48863504997724
FENGYUN 1C DEB          
1 30339U 99025ABA 26094.29848573  .00014363  00000+0  45306-2 0  9996
2 30339  98.9715 210.8981 0023987 114.4582 300.4824 14.40217778990462
FENGYUN 1C DEB          
1 30340U 99025ABB 26094.17416385  .00000651  00000+0  39529-3 0  9993
2 30340  98.9796 154.8673 0145583 181.4211 243.7450 14.04655962983599
FENGYUN 1C DEB          
1 30341U 99025ABC 26094.20088360  .00010862  00000+0  36957-2 0  9992
2 30341  99.2169 354.8286 0050594  91.9807  60.7971 14.35994572986947
FENGYUN 1C DEB          
1 30342U 99025ABD 26094.49355971  .00000949  00000+0  86320-3 0  9994
2 30342 100.2005 287.7416 0167868 192.6741 223.6303 13.80209920964443
FENGYUN 1C DEB          
1 30344U 99025ABF 26094.19792182  .00019675  00000+0  46317-2 0  9999
2 30344  98.8119 186.9944 0009941 140.0764 276.7050 14.54315796997106
